[
  {
    "OBJECT_NAME": "STARLINK-32049",
    "OBJECT_ID": "2024-124S",
    "EPOCH": "2025-05-24T13:04:59.318400",
    "MEAN_MOTION": 15.30188228,
    "ECCENTRICITY": 0.0001098,
    "INCLINATION": 53.1601,
    "RA_OF_ASC_NODE": 225.7374,
    "ARG_OF_PERICENTER": 88.5084,
    "MEAN_ANOMALY": 271.6042,
    "EPHEMERIS_TYPE": 0,
    "CLASSIFICATION_TYPE": "U",
    "NORAD_CAT_ID": 60199,
    "ELEMENT_SET_NO": 999,
    "REV_AT_EPOCH": 5110,
    "BSTAR": 2.3592e-05,
    "MEAN_MOTION_DOT": 3.39e-06,
    "MEAN_MOTION_DDOT": 0
  },
  {
    "OBJECT_NAME": "STARLINK-32002",
    "OBJECT_ID": "2024-124T",
    "EPOCH": "2025-05-24T14:20:49.220160",
    "MEAN_MOTION": 15.30181234,
    "ECCENTRICITY": 0.0001223,
    "INCLINATION": 53.1604,
    "RA_OF_ASC_NODE": 225.3534,
    "ARG_OF_PERICENTER": 97.4427,
    "MEAN_ANOMALY": 262.6713,
    "EPHEMERIS_TYPE": 0,
    "CLASSIFICATION_TYPE": "U",
    "NORAD_CAT_ID": 60200,
    "ELEMENT_SET_NO": 999,
    "REV_AT_EPOCH": 5117,
    "BSTAR": -4.8866e-05,
    "MEAN_MOTION_DOT": -1.805e-05,
    "MEAN_MOTION_DDOT": 0
  },
  {
    "OBJECT_NAME": "STARLINK-32020",
    "OBJECT_ID": "2024-124U",
    "EPOCH": "2025-05-24T10:33:11.366496",
    "MEAN_MOTION": 15.30192877,
    "ECCENTRICITY": 0.0001133,
    "INCLINATION": 53.1598,
    "RA_OF_ASC_NODE": 225.7872,
    "ARG_OF_PERICENTER": 82.2385,
    "MEAN_ANOMALY": 277.8744,
    "EPHEMERIS_TYPE": 0,
    "CLASSIFICATION_TYPE": "U",
    "NORAD_CAT_ID": 60201,
    "ELEMENT_SET_NO": 999,
    "REV_AT_EPOCH": 5001,
    "BSTAR": 7.1061e-06,
    "MEAN_MOTION_DOT": -1.49e-06,
    "MEAN_MOTION_DDOT": 0
  },
  {
    "OBJECT_NAME": "STARLINK-32041",
    "OBJECT_ID": "2024-124V",
    "EPOCH": "2025-05-24T11:08:08.810304",
    "MEAN_MOTION": 15.30171464,
    "ECCENTRICITY": 0.0001273,
    "INCLINATION": 53.1606,
    "RA_OF_ASC_NODE": 225.9376,
    "ARG_OF_PERICENTER": 93.8807,
    "MEAN_ANOMALY": 266.2339,
    "EPHEMERIS_TYPE": 0,
    "CLASSIFICATION_TYPE": "U",
    "NORAD_CAT_ID": 60202,
    "ELEMENT_SET_NO": 999,
    "REV_AT_EPOCH": 5121,
    "BSTAR": 5.5395e-05,
    "MEAN_MOTION_DOT": 1.28e-05,
    "MEAN_MOTION_DDOT": 0
  },
  {
    "OBJECT_NAME": "STARLINK-32138",
    "OBJECT_ID": "2024-131A",
    "EPOCH": "2025-05-24T04:39:25.390368",
    "MEAN_MOTION": 15.30190179,
    "ECCENTRICITY": 0.0001231,
    "INCLINATION": 53.1612,
    "RA_OF_ASC_NODE": 317.2449,
    "ARG_OF_PERICENTER": 93.512,
    "MEAN_ANOMALY": 266.6021,
    "EPHEMERIS_TYPE": 0,
    "CLASSIFICATION_TYPE": "U",
    "NORAD_CAT_ID": 60255,
    "ELEMENT_SET_NO": 999,
    "REV_AT_EPOCH": 4769,
    "BSTAR": -1.0893e-05,
    "MEAN_MOTION_DOT": -6.82e-06,
    "MEAN_MOTION_DDOT": 0
  },
  {
    "OBJECT_NAME": "STARLINK-32212",
    "OBJECT_ID": "2024-131B",
    "EPOCH": "2025-05-24T20:38:11.509152",
    "MEAN_MOTION": 15.30190728,
    "ECCENTRICITY": 0.0001197,
    "INCLINATION": 53.1606,
    "RA_OF_ASC_NODE": 314.3002,
    "ARG_OF_PERICENTER": 95.9698,
    "MEAN_ANOMALY": 264.1439,
    "EPHEMERIS_TYPE": 0,
    "CLASSIFICATION_TYPE": "U",
    "NORAD_CAT_ID": 60256,
    "ELEMENT_SET_NO": 999,
    "REV_AT_EPOCH": 4748,
    "BSTAR": 1.2075e-06,
    "MEAN_MOTION_DOT": -3.23e-06,
    "MEAN_MOTION_DDOT": 0
  },
  {
    "OBJECT_NAME": "STARLINK-32166",
    "OBJECT_ID": "2024-131C",
    "EPOCH": "2025-05-24T11:23:00.409056",
    "MEAN_MOTION": 15.30175885,
    "ECCENTRICITY": 8.62e-05,
    "INCLINATION": 53.1615,
    "RA_OF_ASC_NODE": 316.1502,
    "ARG_OF_PERICENTER": 87.5657,
    "MEAN_ANOMALY": 272.5443,
    "EPHEMERIS_TYPE": 0,
    "CLASSIFICATION_TYPE": "U",
    "NORAD_CAT_ID": 60257,
    "ELEMENT_SET_NO": 999,
    "REV_AT_EPOCH": 4743,
    "BSTAR": -5.8094e-05,
    "MEAN_MOTION_DOT": -2.078e-05,
    "MEAN_MOTION_DDOT": 0
  },
  {
    "OBJECT_NAME": "STARLINK-32200",
    "OBJECT_ID": "2024-131D",
    "EPOCH": "2025-05-24T17:27:03.011616",
    "MEAN_MOTION": 15.30182836,
    "ECCENTRICITY": 0.0001216,
    "INCLINATION": 53.1611,
    "RA_OF_ASC_NODE": 314.8862,
    "ARG_OF_PERICENTER": 94.8944,
    "MEAN_ANOMALY": 265.2196,
    "EPHEMERIS_TYPE": 0,
    "CLASSIFICATION_TYPE": "U",
    "NORAD_CAT_ID": 60258,
    "ELEMENT_SET_NO": 999,
    "REV_AT_EPOCH": 4747,
    "BSTAR": -1.161e-05,
    "MEAN_MOTION_DOT": -7.03e-06,
    "MEAN_MOTION_DDOT": 0
  },
  {
    "OBJECT_NAME": "STARLINK-32207",
    "OBJECT_ID": "2024-131E",
    "EPOCH": "2025-05-24T17:24:00.889056",
    "MEAN_MOTION": 15.30182591,
    "ECCENTRICITY": 0.0001214,
    "INCLINATION": 53.1612,
    "RA_OF_ASC_NODE": 314.8831,
    "ARG_OF_PERICENTER": 98.7417,
    "MEAN_ANOMALY": 261.3721,
    "EPHEMERIS_TYPE": 0,
    "CLASSIFICATION_TYPE": "U",
    "NORAD_CAT_ID": 60259,
    "ELEMENT_SET_NO": 999,
    "REV_AT_EPOCH": 4745,
    "BSTAR": -1.1594e-05,
    "MEAN_MOTION_DOT": -7.02e-06,
    "MEAN_MOTION_DDOT": 0
  },
  {
    "OBJECT_NAME": "STARLINK-32125",
    "OBJECT_ID": "2024-131F",
    "EPOCH": "2025-05-24T20:53:13.636608",
    "MEAN_MOTION": 15.30186997,
    "ECCENTRICITY": 0.0001103,
    "INCLINATION": 53.1604,
    "RA_OF_ASC_NODE": 313.6434,
    "ARG_OF_PERICENTER": 80.3133,
    "MEAN_ANOMALY": 279.7992,
    "EPHEMERIS_TYPE": 0,
    "CLASSIFICATION_TYPE": "U",
    "NORAD_CAT_ID": 60260,
    "ELEMENT_SET_NO": 999,
    "REV_AT_EPOCH": 4751,
    "BSTAR": -1.6936e-05,
    "MEAN_MOTION_DOT": -8.6e-06,
    "MEAN_MOTION_DDOT": 0
  },
  {
    "OBJECT_NAME": "STARLINK-32160",
    "OBJECT_ID": "2024-131G",
    "EPOCH": "2025-05-24T04:59:10.768128",
    "MEAN_MOTION": 15.3018734,
    "ECCENTRICITY": 0.0001286,
    "INCLINATION": 53.1612,
    "RA_OF_ASC_NODE": 317.3278,
    "ARG_OF_PERICENTER": 90.6057,
    "MEAN_ANOMALY": 269.5091,
    "EPHEMERIS_TYPE": 0,
    "CLASSIFICATION_TYPE": "U",
    "NORAD_CAT_ID": 60261,
    "ELEMENT_SET_NO": 999,
    "REV_AT_EPOCH": 4744,
    "BSTAR": 1.092e-06,
    "MEAN_MOTION_DOT": -3.27e-06,
    "MEAN_MOTION_DDOT": 0
  },
  {
    "OBJECT_NAME": "STARLINK-32163",
    "OBJECT_ID": "2024-131H",
    "EPOCH": "2025-05-24T16:44:30.328800",
    "MEAN_MOTION": 15.30187894,
    "ECCENTRICITY": 0.0001128,
    "INCLINATION": 53.1602,
    "RA_OF_ASC_NODE": 314.6976,
    "ARG_OF_PERICENTER": 81.8809,
    "MEAN_ANOMALY": 278.232,
    "EPHEMERIS_TYPE": 0,
    "CLASSIFICATION_TYPE": "U",
    "NORAD_CAT_ID": 60262,
    "ELEMENT_SET_NO": 999,
    "REV_AT_EPOCH": 4746,
    "BSTAR": -2.4901e-05,
    "MEAN_MOTION_DOT": -1.096e-05,
    "MEAN_MOTION_DDOT": 0
  },
  {
    "OBJECT_NAME": "STARLINK-32148",
    "OBJECT_ID": "2024-131J",
    "EPOCH": "2025-05-24T18:32:14.211744",
    "MEAN_MOTION": 15.30181095,
    "ECCENTRICITY": 0.0001127,
    "INCLINATION": 53.1607,
    "RA_OF_ASC_NODE": 314.4524,
    "ARG_OF_PERICENTER": 92.0661,
    "MEAN_ANOMALY": 268.0469,
    "EPHEMERIS_TYPE": 0,
    "CLASSIFICATION_TYPE": "U",
    "NORAD_CAT_ID": 60263,
    "ELEMENT_SET_NO": 999,
    "REV_AT_EPOCH": 4752,
    "BSTAR": -4.1682e-05,
    "MEAN_MOTION_DOT": -1.593e-05,
    "MEAN_MOTION_DDOT": 0
  },
  {
    "OBJECT_NAME": "STARLINK-32121",
    "OBJECT_ID": "2024-131K",
    "EPOCH": "2025-05-24T17:02:44.323872",
    "MEAN_MOTION": 15.30187368,
    "ECCENTRICITY": 0.0001044,
    "INCLINATION": 53.1615,
    "RA_OF_ASC_NODE": 314.7791,
    "ARG_OF_PERICENTER": 92.286,
    "MEAN_ANOMALY": 267.8261,
    "EPHEMERIS_TYPE": 0,
    "CLASSIFICATION_TYPE": "U",
    "NORAD_CAT_ID": 60264,
    "ELEMENT_SET_NO": 999,
    "REV_AT_EPOCH": 4751,
    "BSTAR": -1.3318e-05,
    "MEAN_MOTION_DOT": -7.53e-06,
    "MEAN_MOTION_DDOT": 0
  }
]