STARLINK-32049          
1 60199U 24124S   25144.54513100  .00000339  00000+0  23592-4 0  9992
2 60199  53.1601 225.7374 0001098  88.5084 271.6042 15.30188228 51101
STARLINK-32002          
1 60200U 24124T   25144.59779190 -.00001805  00000+0 -48866-4 0  9995
2 60200  53.1604 225.3534 0001223  97.4427 262.6713 15.30181234 51173
STARLINK-32020          
1 60201U 24124U   25144.43971489 -.00000149  00000+0  71061-5 0  9997
2 60201  53.1598 225.7872 0001133  82.2385 277.8744 15.30192877 50019
STARLINK-32041          
1 60202U 24124V   25144.46399086  .00001280  00000+0  55395-4 0  9995
2 60202  53.1606 225.9376 0001273  93.8807 266.2339 15.30171464 51217
STARLINK-32138          
1 60255U 24131A   25144.19404387 -.00000682  00000+0 -10893-4 0  9993
2 60255  53.1612 317.2449 0001231  93.5120 266.6021 15.30190179 47690
STARLINK-32212          
1 60256U 24131B   25144.85985543 -.00000323  00000+0  12075-5 0  9991
2 60256  53.1606 314.3002 0001197  95.9698 264.1439 15.30190728 47487
STARLINK-32166          
1 60257U 24131C   25144.47431029 -.00002078  00000+0 -58094-4 0  9995
2 60257  53.1615 316.1502 0000862  87.5657 272.5443 15.30175885 47433
STARLINK-32200          
1 60258U 24131D   25144.72711819 -.00000703  00000+0 -11610-4 0  9998
2 60258  53.1611 314.8862 0001216  94.8944 265.2196 15.30182836 47470
STARLINK-32207          
1 60259U 24131E   25144.72501029 -.00000702  00000+0 -11594-4 0  9999
2 60259  53.1612 314.8831 0001214  98.7417 261.3721 15.30182591 47451
STARLINK-32125          
1 60260U 24131F   25144.87029672 -.00000860  00000+0 -16936-4 0  9996
2 60260  53.1604 313.6434 0001103  80.3133 279.7992 15.30186997 47513
STARLINK-32160          
1 60261U 24131G   25144.20776352 -.00000327  00000+0  10920-5 0  9993
2 60261  53.1612 317.3278 0001286  90.6057 269.5091 15.30187340 47443
STARLINK-32163          
1 60262U 24131H   25144.69757325 -.00001096  00000+0 -24901-4 0  9994
2 60262  53.1602 314.6976 0001128  81.8809 278.2320 15.30187894 47468
STARLINK-32148          
1 60263U 24131J   25144.77238671 -.00001593  00000+0 -41682-4 0  9999
2 60263  53.1607 314.4524 0001127  92.0661 268.0469 15.30181095 47525
STARLINK-32121          
1 60264U 24131K   25144.71023523 -.00000753  00000+0 -13318-4 0  9994
2 60264  53.1615 314.7791 0001044  92.2860 267.8261 15.30187368 47510
